[
    {
        "Altitude(m)": 560893.9273701513,
        "Argument of Periapsis(deg)": 0.0,
        "Eccentricity": 0.0,
        "Inclination(deg)": 53.0,
        "Latitude(deg)": -25.776414701581942,
        "Longitude(deg)": -141.18675032254535,
        "Mean Anomaly(deg)": -32.72730000000006,
        "RAAN(deg)": 340.00000000000006,
        "Satellite Name": "Starlink Shell 1 1516",
        "Satellite Number": 1516,
        "Semi-Major Axis(m)": 6931778.249405717,
        "Time(s)": 0
    },
    {
        "Altitude(m)": 560723.3177677157,
        "Argument of Periapsis(deg)": 0.00034857847951123687,
        "Eccentricity": 0.0,
        "Inclination(deg)": 53.0,
        "Latitude(deg)": -25.307455196815976,
        "Longitude(deg)": -140.7666558339206,
        "Mean Anomaly(deg)": -32.100468796443366,
        "RAAN(deg)": 339.99948122992254,
        "Satellite Name": "Starlink Shell 1 1516",
        "Satellite Number": 1516,
        "Semi-Major Axis(m)": 6931778.249405717,
        "Time(s)": 10
    },
    {
        "Altitude(m)": 560553.5229861593,
        "Argument of Periapsis(deg)": 0.0006971569590224737,
        "Eccentricity": 0.0,
        "Inclination(deg)": 53.0,
        "Latitude(deg)": -24.837019048770276,
        "Longitude(deg)": -140.35008798911423,
        "Mean Anomaly(deg)": -31.47363759288657,
        "RAAN(deg)": 339.9989624598451,
        "Satellite Name": "Starlink Shell 1 1516",
        "Satellite Number": 1516,
        "Semi-Major Axis(m)": 6931778.249405717,
        "Time(s)": 20
    },
    {
        "Altitude(m)": 560384.604629949,
        "Argument of Periapsis(deg)": 0.0010457354385337105,
        "Eccentricity": 0.0,
        "Inclination(deg)": 53.0,
        "Latitude(deg)": -24.365147208791274,
        "Longitude(deg)": -139.93695638820907,
        "Mean Anomaly(deg)": -30.84680638932987,
        "RAAN(deg)": 339.9984436897676,
        "Satellite Name": "Starlink Shell 1 1516",
        "Satellite Number": 1516,
        "Semi-Major Axis(m)": 6931778.249405717,
        "Time(s)": 30
    },
    {
        "Altitude(m)": 560216.6237645871,
        "Argument of Periapsis(deg)": 0.0013943139180449475,
        "Eccentricity": 0.0,
        "Inclination(deg)": 53.0,
        "Latitude(deg)": -23.891879800888155,
        "Longitude(deg)": -139.5271713710079,
        "Mean Anomaly(deg)": -30.219975185773126,
        "RAAN(deg)": 339.99792491969015,
        "Satellite Name": "Starlink Shell 1 1516",
        "Satellite Number": 1516,
        "Semi-Major Axis(m)": 6931778.249405717,
        "Time(s)": 40
    },
    {
        "Altitude(m)": 560049.640889247,
        "Argument of Periapsis(deg)": 0.0017428923975561844,
        "Eccentricity": 0.0,
        "Inclination(deg)": 53.0,
        "Latitude(deg)": -23.417256147579394,
        "Longitude(deg)": -139.12064501006083,
        "Mean Anomaly(deg)": -29.59314398221638,
        "RAAN(deg)": 339.9974061496127,
        "Satellite Name": "Starlink Shell 1 1516",
        "Satellite Number": 1516,
        "Semi-Major Axis(m)": 6931778.249405717,
        "Time(s)": 50
    },
    {
        "Altitude(m)": 559883.7159096544,
        "Argument of Periapsis(deg)": 0.002091470877067421,
        "Eccentricity": 0.0,
        "Inclination(deg)": 53.0,
        "Latitude(deg)": -22.94131479522107,
        "Longitude(deg)": -138.71729058942122,
        "Mean Anomaly(deg)": -28.966312778659685,
        "RAAN(deg)": 339.99688737953517,
        "Satellite Name": "Starlink Shell 1 1516",
        "Satellite Number": 1516,
        "Semi-Major Axis(m)": 6931778.249405717,
        "Time(s)": 60
    },
    {
        "Altitude(m)": 559718.908111295,
        "Argument of Periapsis(deg)": 0.0024400493565786582,
        "Eccentricity": 0.0,
        "Inclination(deg)": 53.0,
        "Latitude(deg)": -22.464093538817615,
        "Longitude(deg)": -138.31702208214156,
        "Mean Anomaly(deg)": -28.339481575103036,
        "RAAN(deg)": 339.9963686094577,
        "Satellite Name": "Starlink Shell 1 1516",
        "Satellite Number": 1516,
        "Semi-Major Axis(m)": 6931778.249405717,
        "Time(s)": 70
    },
    {
        "Altitude(m)": 559555.2761328514,
        "Argument of Periapsis(deg)": 0.002788627836089895,
        "Eccentricity": 0.0,
        "Inclination(deg)": 53.0,
        "Latitude(deg)": -21.9856294463143,
        "Longitude(deg)": -137.91975513950624,
        "Mean Anomaly(deg)": -27.712650371546296,
        "RAAN(deg)": 339.99584983938024,
        "Satellite Name": "Starlink Shell 1 1516",
        "Satellite Number": 1516,
        "Semi-Major Axis(m)": 6931778.249405717,
        "Time(s)": 80
    },
    {
        "Altitude(m)": 559392.8779399873,
        "Argument of Periapsis(deg)": 0.0031372063156011316,
        "Eccentricity": 0.0,
        "Inclination(deg)": 53.0,
        "Latitude(deg)": -21.50595888238021,
        "Longitude(deg)": -137.52540656637083,
        "Mean Anomaly(deg)": -27.08581916798955,
        "RAAN(deg)": 339.9953310693028,
        "Satellite Name": "Starlink Shell 1 1516",
        "Satellite Number": 1516,
        "Semi-Major Axis(m)": 6931778.249405717,
        "Time(s)": 90
    },
    {
        "Altitude(m)": 559231.7707994597,
        "Argument of Periapsis(deg)": 0.0034857847951123688,
        "Eccentricity": 0.0,
        "Inclination(deg)": 53.0,
        "Latitude(deg)": -21.025117531684298,
        "Longitude(deg)": -137.13389379558606,
        "Mean Anomaly(deg)": -26.45898796443285,
        "RAAN(deg)": 339.99481229922526,
        "Satellite Name": "Starlink Shell 1 1516",
        "Satellite Number": 1516,
        "Semi-Major Axis(m)": 6931778.249405717,
        "Time(s)": 100
    },
    {
        "Altitude(m)": 559072.0112535052,
        "Argument of Periapsis(deg)": 0.003834363274623606,
        "Eccentricity": 0.0,
        "Inclination(deg)": 53.0,
        "Latitude(deg)": -20.54314042166771,
        "Longitude(deg)": -136.74513587448192,
        "Mean Anomaly(deg)": -25.832156760876206,
        "RAAN(deg)": 339.99429352914785,
        "Satellite Name": "Starlink Shell 1 1516",
        "Satellite Number": 1516,
        "Semi-Major Axis(m)": 6931778.249405717,
        "Time(s)": 110
    },
    {
        "Altitude(m)": 558913.6550946286,
        "Argument of Periapsis(deg)": 0.004182941754134842,
        "Eccentricity": 0.0,
        "Inclination(deg)": 53.0,
        "Latitude(deg)": -20.06006194482477,
        "Longitude(deg)": -136.35905293775386,
        "Mean Anomaly(deg)": -25.20532555731936,
        "RAAN(deg)": 339.9937747590704,
        "Satellite Name": "Starlink Shell 1 1516",
        "Satellite Number": 1516,
        "Semi-Major Axis(m)": 6931778.249405717,
        "Time(s)": 120
    },
    {
        "Altitude(m)": 558756.7573407259,
        "Argument of Periapsis(deg)": 0.004531520233646079,
        "Eccentricity": 0.0,
        "Inclination(deg)": 53.0,
        "Latitude(deg)": -19.575915880498375,
        "Longitude(deg)": -135.9755656797097,
        "Mean Anomaly(deg)": -24.57849435376266,
        "RAAN(deg)": 339.99325598899287,
        "Satellite Name": "Starlink Shell 1 1516",
        "Satellite Number": 1516,
        "Semi-Major Axis(m)": 6931778.249405717,
        "Time(s)": 130
    },
    {
        "Altitude(m)": 558601.3722105762,
        "Argument of Periapsis(deg)": 0.0048800987131573164,
        "Eccentricity": 0.0,
        "Inclination(deg)": 53.0,
        "Latitude(deg)": -19.090735416193727,
        "Longitude(deg)": -135.59459633882673,
        "Mean Anomaly(deg)": -23.951663150206066,
        "RAAN(deg)": 339.9927372189154,
        "Satellite Name": "Starlink Shell 1 1516",
        "Satellite Number": 1516,
        "Semi-Major Axis(m)": 6931778.249405717,
        "Time(s)": 140
    },
    {
        "Altitude(m)": 558447.5530997121,
        "Argument of Periapsis(deg)": 0.005228677192668553,
        "Eccentricity": 0.0,
        "Inclination(deg)": 53.0,
        "Latitude(deg)": -18.60455316842717,
        "Longitude(deg)": -135.2160681689448,
        "Mean Anomaly(deg)": -23.32483194664927,
        "RAAN(deg)": 339.9922184488379,
        "Satellite Name": "Starlink Shell 1 1516",
        "Satellite Number": 1516,
        "Semi-Major Axis(m)": 6931778.249405717,
        "Time(s)": 150
    },
    {
        "Altitude(m)": 558295.3525567128,
        "Argument of Periapsis(deg)": 0.00557725567217979,
        "Eccentricity": 0.0,
        "Inclination(deg)": 53.0,
        "Latitude(deg)": -18.11740120311604,
        "Longitude(deg)": -134.8399049100317,
        "Mean Anomaly(deg)": -22.698000743092575,
        "RAAN(deg)": 339.9916996787605,
        "Satellite Name": "Starlink Shell 1 1516",
        "Satellite Number": 1516,
        "Semi-Major Axis(m)": 6931778.249405717,
        "Time(s)": 160
    },
    {
        "Altitude(m)": 558144.8222598635,
        "Argument of Periapsis(deg)": 0.0059258341516910265,
        "Eccentricity": 0.0,
        "Inclination(deg)": 53.0,
        "Latitude(deg)": -17.629311055516776,
        "Longitude(deg)": -134.46603177145573,
        "Mean Anomaly(deg)": -22.07116953953588,
        "RAAN(deg)": 339.991180908683,
        "Satellite Name": "Starlink Shell 1 1516",
        "Satellite Number": 1516,
        "Semi-Major Axis(m)": 6931778.249405717,
        "Time(s)": 170
    },
    {
        "Altitude(m)": 557996.0129942806,
        "Argument of Periapsis(deg)": 0.006274412631202263,
        "Eccentricity": 0.0,
        "Inclination(deg)": 53.0,
        "Latitude(deg)": -17.14031374972822,
        "Longitude(deg)": -134.09437490207137,
        "Mean Anomaly(deg)": -21.444338335979186,
        "RAAN(deg)": 339.9906621386055,
        "Satellite Name": "Starlink Shell 1 1516",
        "Satellite Number": 1516,
        "Semi-Major Axis(m)": 6931778.249405717,
        "Time(s)": 180
    }
]